[{"OBJECT_NAME":"IRIDIUM 173","OBJECT_ID":"2019-002D","EPOCH":"2026-03-02T22:18:06.588288","MEAN_MOTION":14.3421507,"ECCENTRICITY":0.00020574,"INCLINATION":86.3955,"RA_OF_ASC_NODE":37.959,"ARG_OF_PERICENTER":80.0329,"MEAN_ANOMALY":280.1099,"EPHEMERIS_TYPE":0,"CLASSIFICATION_TYPE":"U","NORAD_CAT_ID":43925,"ELEMENT_SET_NO":999,"REV_AT_EPOCH":37372,"BSTAR":-0.00019664383,"MEAN_MOTION_DOT":-5.31e-6,"MEAN_MOTION_DDOT":0},{"OBJECT_NAME":"IRIDIUM 169","OBJECT_ID":"2019-002E","EPOCH":"2026-03-02T23:18:17.041248","MEAN_MOTION":14.38610378,"ECCENTRICITY":0.00016027,"INCLINATION":86.4164,"RA_OF_ASC_NODE":69.5994,"ARG_OF_PERICENTER":74.1427,"MEAN_ANOMALY":285.9948,"EPHEMERIS_TYPE":0,"CLASSIFICATION_TYPE":"U","NORAD_CAT_ID":43926,"ELEMENT_SET_NO":999,"REV_AT_EPOCH":37495,"BSTAR":9.6235948e-5,"MEAN_MOTION_DOT":3.14e-6,"MEAN_MOTION_DDOT":0},{"OBJECT_NAME":"IRIDIUM 172","OBJECT_ID":"2019-002F","EPOCH":"2026-03-02T22:08:58.921152","MEAN_MOTION":14.34217887,"ECCENTRICITY":0.00023574,"INCLINATION":86.3962,"RA_OF_ASC_NODE":37.9691,"ARG_OF_PERICENTER":86.8893,"MEAN_ANOMALY":273.2572,"EPHEMERIS_TYPE":0,"CLASSIFICATION_TYPE":"U","NORAD_CAT_ID":43927,"ELEMENT_SET_NO":999,"REV_AT_EPOCH":37373,"BSTAR":2.1901775e-5,"MEAN_MOTION_DOT":8.1e-7,"MEAN_MOTION_DDOT":0},{"OBJECT_NAME":"IRIDIUM 175","OBJECT_ID":"2019-002G","EPOCH":"2026-03-02T18:50:18.141216","MEAN_MOTION":14.72254758,"ECCENTRICITY":0.00021938,"INCLINATION":86.1547,"RA_OF_ASC_NODE":335.9345,"ARG_OF_PERICENTER":112.7242,"MEAN_ANOMALY":247.4207,"EPHEMERIS_TYPE":0,"CLASSIFICATION_TYPE":"U","NORAD_CAT_ID":43928,"ELEMENT_SET_NO":999,"REV_AT_EPOCH":38358,"BSTAR":0.0001950961,"MEAN_MOTION_DOT":1.255e-5,"MEAN_MOTION_DDOT":0},{"OBJECT_NAME":"IRIDIUM 171","OBJECT_ID":"2019-002H","EPOCH":"2026-03-02T21:41:34.864800","MEAN_MOTION":14.34218061,"ECCENTRICITY":0.00020272,"INCLINATION":86.3969,"RA_OF_ASC_NODE":38.2718,"ARG_OF_PERICENTER":91.512,"MEAN_ANOMALY":268.6308,"EPHEMERIS_TYPE":0,"CLASSIFICATION_TYPE":"U","NORAD_CAT_ID":43929,"ELEMENT_SET_NO":999,"REV_AT_EPOCH":37372,"BSTAR":2.3744139e-5,"MEAN_MOTION_DOT":8.6e-7,"MEAN_MOTION_DDOT":0},{"OBJECT_NAME":"IRIDIUM 170","OBJECT_ID":"2019-002J","EPOCH":"2026-03-02T22:21:33.886080","MEAN_MOTION":14.72254903,"ECCENTRICITY":0.00026137,"INCLINATION":86.6082,"RA_OF_ASC_NODE":37.9515,"ARG_OF_PERICENTER":91.523,"MEAN_ANOMALY":268.6286,"EPHEMERIS_TYPE":0,"CLASSIFICATION_TYPE":"U","NORAD_CAT_ID":43930,"ELEMENT_SET_NO":999,"REV_AT_EPOCH":38362,"BSTAR":0.00019534481,"MEAN_MOTION_DOT":1.256e-5,"MEAN_MOTION_DDOT":0},{"OBJECT_NAME":"IRIDIUM 167","OBJECT_ID":"2019-002K","EPOCH":"2026-03-02T23:12:54.847008","MEAN_MOTION":14.34217905,"ECCENTRICITY":0.0001847,"INCLINATION":86.3959,"RA_OF_ASC_NODE":37.9719,"ARG_OF_PERICENTER":89.7532,"MEAN_ANOMALY":270.3875,"EPHEMERIS_TYPE":0,"CLASSIFICATION_TYPE":"U","NORAD_CAT_ID":43931,"ELEMENT_SET_NO":999,"REV_AT_EPOCH":37373,"BSTAR":3.14787e-7,"MEAN_MOTION_DOT":2.1e-7,"MEAN_MOTION_DDOT":0},{"OBJECT_NAME":"IRIDIUM 181","OBJECT_ID":"2023-068S","EPOCH":"2026-03-02T14:47:46.699008","MEAN_MOTION":14.43313307,"ECCENTRICITY":0.0002594,"INCLINATION":86.4462,"RA_OF_ASC_NODE":101.3589,"ARG_OF_PERICENTER":98.9823,"MEAN_ANOMALY":261.1671,"EPHEMERIS_TYPE":0,"CLASSIFICATION_TYPE":"U","NORAD_CAT_ID":56726,"ELEMENT_SET_NO":999,"REV_AT_EPOCH":14706,"BSTAR":0.00010698,"MEAN_MOTION_DOT":3.8e-6,"MEAN_MOTION_DDOT":0},{"OBJECT_NAME":"IRIDIUM 177","OBJECT_ID":"2023-068T","EPOCH":"2026-03-02T22:01:25.047264","MEAN_MOTION":14.80234075,"ECCENTRICITY":0.00023512,"INCLINATION":86.1992,"RA_OF_ASC_NODE":19.2366,"ARG_OF_PERICENTER":81.1514,"MEAN_ANOMALY":278.9973,"EPHEMERIS_TYPE":0,"CLASSIFICATION_TYPE":"U","NORAD_CAT_ID":56727,"ELEMENT_SET_NO":999,"REV_AT_EPOCH":15064,"BSTAR":0.0001288383,"MEAN_MOTION_DOT":1.006e-5,"MEAN_MOTION_DDOT":0},{"OBJECT_NAME":"IRIDIUM 174","OBJECT_ID":"2023-068U","EPOCH":"2026-03-02T22:03:46.550592","MEAN_MOTION":14.72257285,"ECCENTRICITY":0.00026124,"INCLINATION":86.6088,"RA_OF_ASC_NODE":38.0935,"ARG_OF_PERICENTER":83.5768,"MEAN_ANOMALY":276.5746,"EPHEMERIS_TYPE":0,"CLASSIFICATION_TYPE":"U","NORAD_CAT_ID":56728,"ELEMENT_SET_NO":999,"REV_AT_EPOCH":15038,"BSTAR":0.00020258693,"MEAN_MOTION_DOT":1.302e-5,"MEAN_MOTION_DDOT":0},{"OBJECT_NAME":"IRIDIUM 178","OBJECT_ID":"2023-068V","EPOCH":"2026-03-02T13:38:59.059968","MEAN_MOTION":14.80241345,"ECCENTRICITY":0.0002297,"INCLINATION":86.648,"RA_OF_ASC_NODE":69.9182,"ARG_OF_PERICENTER":102.5418,"MEAN_ANOMALY":257.6061,"EPHEMERIS_TYPE":0,"CLASSIFICATION_TYPE":"U","NORAD_CAT_ID":56729,"ELEMENT_SET_NO":999,"REV_AT_EPOCH":15059,"BSTAR":8.3282e-5,"MEAN_MOTION_DOT":6.59e-6,"MEAN_MOTION_DDOT":0},{"OBJECT_NAME":"IRIDIUM 179","OBJECT_ID":"2023-068W","EPOCH":"2026-03-02T23:15:20.233152","MEAN_MOTION":14.80238178,"ECCENTRICITY":0.00022549,"INCLINATION":86.6717,"RA_OF_ASC_NODE":78.4225,"ARG_OF_PERICENTER":93.3857,"MEAN_ANOMALY":266.7622,"EPHEMERIS_TYPE":0,"CLASSIFICATION_TYPE":"U","NORAD_CAT_ID":56730,"ELEMENT_SET_NO":999,"REV_AT_EPOCH":15065,"BSTAR":7.5817316e-5,"MEAN_MOTION_DOT":6.02e-6,"MEAN_MOTION_DDOT":0}]
