IRIDIUM 173             
1 43925U 19002D   26061.92924292 -.00000531  00000+0 -19664-3 0  9998
2 43925  86.3955  37.9590 0002057  80.0329 280.1099 14.34215070373728
IRIDIUM 169             
1 43926U 19002E   26061.97103057  .00000314  00000+0  96236-4 0  9990
2 43926  86.4164  69.5994 0001602  74.1427 285.9948 14.38610378374955
IRIDIUM 172             
1 43927U 19002F   26061.92290418  .00000081  00000+0  21902-4 0  9993
2 43927  86.3962  37.9691 0002357  86.8893 273.2572 14.34217887373731
IRIDIUM 175             
1 43928U 19002G   26061.78493219  .00001255  00000+0  19510-3 0  9997
2 43928  86.1547 335.9345 0002193 112.7242 247.4207 14.72254758383583
IRIDIUM 171             
1 43929U 19002H   26061.90387575  .00000086  00000+0  23744-4 0  9995
2 43929  86.3969  38.2718 0002027  91.5120 268.6308 14.34218061373723
IRIDIUM 170             
1 43930U 19002J   26061.93164220  .00001256  00000+0  19534-3 0  9991
2 43930  86.6082  37.9515 0002613  91.5230 268.6286 14.72254903383620
IRIDIUM 167             
1 43931U 19002K   26061.96730147  .00000021  00000+0  31479-6 0  9996
2 43931  86.3959  37.9719 0001847  89.7532 270.3875 14.34217905373733
IRIDIUM 181             
1 56726U 23068S   26061.61651272  .00000380  00000+0  10698-3 0  9997
2 56726  86.4462 101.3589 0002594  98.9823 261.1671 14.43313307147065
IRIDIUM 177             
1 56727U 23068T   26061.91765101  .00001006  00000+0  12884-3 0  9993
2 56727  86.1992  19.2366 0002351  81.1514 278.9973 14.80234075150647
IRIDIUM 174             
1 56728U 23068U   26061.91928878  .00001302  00000+0  20259-3 0  9990
2 56728  86.6088  38.0935 0002612  83.5768 276.5746 14.72257285150389
IRIDIUM 178             
1 56729U 23068V   26061.56873912  .00000659  00000+0  83282-4 0  9990
2 56729  86.6480  69.9182 0002297 102.5418 257.6061 14.80241345150598
IRIDIUM 179             
1 56730U 23068W   26061.96898418  .00000602  00000+0  75817-4 0  9997
2 56730  86.6717  78.4225 0002254  93.3857 266.7622 14.80238178150654
